# From MPEC 2025-OF9
73P-BX/Schwassmann-Wachmann,e,6.9191,58.4284,207.9240,3.090749,0.1813879,0.71016304,211.7319,10/21.0/2025,2000,g 17.5,4.0
# From MPEC 2022-R15
73P-BY/Schwassmann-Wachmann,e,10.6818,191.3092,77.2650,3.016262,0.1881484,0.68990722,216.2708,10/21.0/2025,2000,g 17.4,4.0
# From MPC188416
74P/Smirnova-Chernykh,e,6.0490,52.0504,60.6899,5.099434,0.0855896,0.05189357,344.5426,10/21.0/2025,2000,g  5.0,6.0
# From CCO 7
75D/Kohoutek,e,5.9269,269.5524,175.6009,3.536327,0.1482093,0.49953752,249.9517,10/21.0/2025,2000,g  9.5,6.0
# From MPEC 2022-K19
76P/West-Kohoutek-Ikemura,e,30.4884,84.1100,0.0187,3.466852,0.1526867,0.53945520,333.3459,10/21.0/2025,2000,g  8.0,12.0
# From MPC188416
77P/Longmore,e,24.3284,14.7480,196.6011,3.619882,0.1431075,0.35191912,133.3960,10/21.0/2025,2000,g  7.0,8.0
# From MPC188416
78P/Gehrels,e,6.2572,210.4984,192.7767,3.733037,0.1366503,0.46301066,326.2384,10/21.0/2025,2000,g  5.5,8.0
# From MPEC 2024-PC5
79P/duToit-Hartley,e,3.1488,280.4974,281.7556,2.942256,0.1952915,0.61945005,146.7867,10/21.0/2025,2000,g 16.0,4.0
# From MPEC 2024-Q20
80P/Peters-Hartley,e,29.9274,259.7717,339.2595,4.021225,0.1222268,0.59768173,128.0930,10/21.0/2025,2000,g  9.0,8.0
# From MPEC 2024-RQ6
81P/Wild,e,3.2385,136.1031,41.5446,3.451219,0.1537253,0.53779307,159.8792,10/21.0/2025,2000,g  7.0,6.0
# From MPC133426
82P/Gehrels,e,1.1294,239.2152,226.4482,4.132740,0.1173132,0.12305605,314.1673,10/21.0/2025,2000,g  5.0,8.0
# From NK 932
83D/Russell,e,17.8327,226.2948,334.3666,3.843084,0.1308230,0.44156851,211.0815,10/21.0/2025,2000,g  9.0,4.0
# From MPEC 2020-FB5
84P/Giclas,e,7.5531,108.1404,281.6846,3.550041,0.1473513,0.51564165,289.3217,10/21.0/2025,2000,g  9.5,8.0
# From unp
85D/Boethin,e,4.1721,65.3028,333.0897,5.046886,0.0869298,0.77572147,165.9261,10/21.0/2025,2000,g  6.5,8.0
# From MPEC 2022-YB4
86P/Wild,e,15.4828,72.0924,181.0209,3.651308,0.1412640,0.36105718,192.1253,10/21.0/2025,2000,g 11.0,6.0
# From MPEC 2020-SI8
87P/Bus,e,2.6630,184.4624,51.7531,4.374988,0.1077057,0.21348977,224.3707,10/21.0/2025,2000,g  7.2,10.0
# From MPC188417
88P/Howell,e,4.3820,56.6693,235.8737,3.108754,0.1798144,0.56324814,333.2470,10/21.0/2025,2000,g 11.0,6.0
# From MPC182887
89P/Russell,e,12.0693,41.3436,250.4532,3.751385,0.1356490,0.40729918,77.7863,10/21.0/2025,2000,g 11.5,6.0
# From MPEC 2022-K19
90P/Gehrels,e,9.6369,13.1757,29.2056,6.054883,0.0661524,0.51041861,201.1795,10/21.0/2025,2000,g  8.5,6.0
# From MPEC 2023-VM5
91P/Russell,e,16.0420,242.1783,357.0190,4.153412,0.1164385,0.25338300,231.8801,10/21.0/2025,2000,g  7.5,6.0
# From MPEC 2014-J58
92P/Sanguin,e,19.4759,181.3572,163.7720,5.345005,0.0797594,0.65996390,309.5563,10/21.0/2025,2000,g 12.0,6.0
# From MPC188417
93P/Lovas,e,12.2103,339.5493,75.0363,4.373085,0.1077761,0.61389801,339.0986,10/21.0/2025,2000,g  9.5,6.0
# From MPC188417
94P/Russell,e,6.1873,70.8437,92.3750,3.509765,0.1498949,0.36612598,132.4602,10/21.0/2025,2000,g  9.0,6.0
# From MPC182887
96P/Machholz,e,57.5879,93.9631,14.7382,3.031044,0.1867737,0.96172289,185.5688,10/21.0/2025,2000,g 13.0,4.8
# From MPC106348
96P-B/Machholz,e,57.5062,14.5423,94.0415,3.029985,0.1868716,0.96175142,185.7068,10/21.0/2025,2000,g 13.0,4.8
# From MPC103849
96P-C/Machholz,e,58.5311,94.3495,15.5380,3.011920,0.1885553,0.95889850,359.8715,07/14.0/2012,2000,g  9.0,4.0
# From MPEC 2024-GJ3
97P/Metcalf-Brewington,e,17.9347,184.0690,230.2204,4.770711,0.0945866,0.45979007,127.0415,10/21.0/2025,2000,g  5.5,6.0
# From MPEC 2021-W31
98P/Takamizawa,e,10.7332,114.4616,157.8379,3.771938,0.1345418,0.57141581,234.8472,10/21.0/2025,2000,g  9.0,8.0
# From MPEC 2024-R10
99P/Kowal,e,4.3392,28.0559,174.5121,6.093153,0.0655301,0.22887701,84.6038,10/21.0/2025,2000,g  4.5,6.0
# From MPC186635
100P/Hartley,e,25.5677,37.6858,181.9067,3.430270,0.1551356,0.41136407,181.2085,10/21.0/2025,2000,g  9.0,8.0
# From MPEC 2024-R10
101P/Chernykh,e,5.0485,116.1158,278.0017,5.818458,0.0702251,0.59537344,148.0549,10/21.0/2025,2000,g 10.0,4.8
# From MPC105241
101P-B/Chernykh,e,5.0503,278.5027,115.6185,5.834014,0.0699444,0.59558468,146.2203,10/21.0/2025,2000,g  9.0,4.0
# From MPEC 2022-C56
102P/Shoemaker,e,25.8509,339.3900,20.6703,3.820654,0.1319768,0.45584665,228.8340,10/21.0/2025,2000,g  6.5,8.0
# From MPC184417
103P/Hartley,e,13.6059,219.7596,181.3326,3.475978,0.1520857,0.69339517,112.4876,10/21.0/2025,2000,g  8.5,8.0
# From MPEC 2023-G31
104P/Kowal,e,5.7004,207.1727,227.3200,3.208564,0.1714897,0.66587640,236.2049,10/21.0/2025,2000,g 16.0,4.0
# From MPC188417
105P/SingerBrewster,e,9.1675,192.3895,46.3210,3.472817,0.1522935,0.40915100,41.3139,10/21.0/2025,2000,g 11.5,6.0
# From MPEC 2024-R10
106P/Schuster,e,19.5304,48.8660,353.8008,3.768571,0.1347221,0.59340078,205.3079,10/21.0/2025,2000,g 14.0,4.8
# From MPEC 2022-P82
108P/Ciffreo,e,11.4306,50.3013,354.5367,3.744104,0.1360449,0.55555371,204.2859,10/21.0/2025,2000,g  8.0,12.0
# From ICA 105, 420
109P/Swift-Tuttle,e,113.0260,139.7692,153.2888,26.19782,0.0073503,0.96298198,88.1504,10/21.0/2025,2000,g  4.5,6.0
# From MPEC 2023-KD6
110P/Hartley,e,11.7119,287.4819,167.5788,3.603418,0.1440894,0.31925574,210.6720,10/21.0/2025,2000,g  1.0,12.0
# From MPC 75718
111P/Helin-Roman-Crockett,e,4.2261,89.8101,1.4901,4.153014,0.1164552,0.10716648,184.4167,10/21.0/2025,2000,g  5.0,8.0
# From MPEC 2021-S45
112P/Urata-Niijima,e,24.2016,31.8055,21.5657,3.521981,0.1491158,0.59080603,309.9230,10/21.0/2025,2000,g 14.0,6.0
# From MPEC 2024-JU4
113P/Spitaler,e,5.2878,306.6140,115.7566,3.696453,0.1386840,0.41955404,171.5794,10/21.0/2025,2000,g 13.5,4.0
# From MPEC 2023-A50
114P/Wiseman-Skiff,e,18.3037,271.0255,172.8267,3.539316,0.1480216,0.55614265,311.3055,10/21.0/2025,2000,g 11.5,6.0
# From MPEC 2023-J29
115P/Maury,e,11.6872,175.9486,120.9249,4.270441,0.1116850,0.51825501,213.6118,10/21.0/2025,2000,g 10.5,6.0
# From MPEC 2024-RQ6
116P/Wild,e,3.6049,20.9585,173.1505,3.485532,0.1514609,0.37087103,180.5592,10/21.0/2025,2000,g  2.5,10.0
# From MPC182887
117P/Helin-Roman-Alu,e,8.6653,58.7945,224.8884,4.122675,0.1177431,0.25120012,141.0448,10/21.0/2025,2000,g  2.5,8.0
# From MPC186635
118P/Shoemaker-Levy,e,10.0925,142.0477,314.9684,3.349031,0.1608146,0.45381012,170.6439,10/21.0/2025,2000,g 12.0,4.0
# From MPEC 2024-R10
119P/Parker-Hartley,e,7.3930,104.5405,322.2893,3.809775,0.1325425,0.38799390,154.4886,10/21.0/2025,2000,g  3.5,8.0
# From MPEC 2022-CN4
120P/Mueller,e,8.4802,358.6973,36.7960,3.970379,0.1245822,0.37398476,202.7720,10/21.0/2025,2000,g 12.0,4.0
# From MPC185663
121P/Shoemaker-Holt,e,20.1622,94.1043,12.0304,4.590280,0.1002179,0.18670764,84.4735,10/21.0/2025,2000,g  6.5,8.0
# From MPC 75718
122P/de Vico,e,86.0090,79.7383,13.0082,17.63488,0.0133090,0.96263444,146.0420,10/21.0/2025,2000,g  7.5,5.2
# From MPC188417
123P/West-Hartley,e,15.2874,45.8807,103.9380,3.885325,0.1286954,0.44459609,316.7425,10/21.0/2025,2000,g  4.0,10.0
# From MPEC 2024-UQ8
124P/Mrkos,e,31.4017,359.9642,185.1084,3.377877,0.1587590,0.48641191,321.0103,10/21.0/2025,2000,g 13.5,2.8
# From MPEC 2024-UA9
125P/Spacewatch,e,9.9860,153.1512,87.0941,3.127433,0.1782059,0.51198271,105.6431,10/21.0/2025,2000,g 13.0,6.0
# From MPEC 2024-JU4
126P/IRAS,e,45.8716,357.8571,356.5532,5.626287,0.0738535,0.69591963,61.9701,10/21.0/2025,2000,g  6.0,8.0
# From MPEC 2024-R10
127P/Holt-Olmstead,e,14.2935,13.6161,6.3405,3.454790,0.1534870,0.35858908,179.3030,10/21.0/2025,2000,g 11.0,6.0
# From MPC188417
128P/Shoemaker-Holt,e,4.3714,214.3074,210.5328,4.481413,0.1038919,0.32230834,332.0635,10/21.0/2025,2000,g  8.5,4.0
# From MPC185664
129P/Shoemaker-Levy,e,3.4412,184.8424,307.9600,4.294433,0.1107504,0.08597761,116.4925,10/21.0/2025,2000,g 11.0,4.0
# From MPC184417
130P/McNaught-Hughes,e,6.0462,70.1426,246.5803,3.394606,0.1575869,0.46117753,87.1833,10/21.0/2025,2000,g 10.0,6.0
# From MPC188417
131P/Mueller,e,7.3621,214.1333,179.2622,3.674149,0.1399487,0.34465938,343.5302,10/21.0/2025,2000,g 11.0,4.0
# From MPEC 2024-BE0
132P/Helin-Roman-Alu,e,5.3768,173.9711,216.5201,3.892852,0.1283223,0.56384920,184.5569,10/21.0/2025,2000,g 11.0,6.0
# From MPC 89012
134P/Kowal-Vavrova,e,4.3327,201.9867,18.6294,6.275568,0.0626938,0.58556994,263.4551,10/21.0/2025,2000,g 11.5,4.0
# From MPEC 2024-C04
135P/Shoemaker-Levy,e,6.0623,213.0184,22.3471,3.801899,0.1329546,0.29331663,172.1041,10/21.0/2025,2000,g  7.0,8.0
# From MPC188417
136P/Mueller,e,9.4274,137.4137,225.3827,4.187218,0.1150312,0.29331775,33.3923,10/21.0/2025,2000,g 11.0,4.0
# From MPEC 2023-J29
137P/Shoemaker-Levy,e,4.8592,232.9287,141.2092,4.524117,0.1024244,0.57280679,256.2930,10/21.0/2025,2000,g 11.0,4.0
# From MPC188417
138P/Shoemaker-Levy,e,10.0984,309.2191,95.7513,3.616338,0.1433179,0.53148499,337.8841,10/21.0/2025,2000,g 15.0,6.0
# From MPEC 2020-HN5
139P/Vaisala-Oterma,e,2.3374,242.1751,166.0182,4.512827,0.1028090,0.24823685,294.1996,10/21.0/2025,2000,g  9.5,4.0
# From MPEC 2015-E14
140P/Bowell-Skiff,e,3.6845,343.3621,172.1480,6.414485,0.0606682,0.69500812,228.0268,10/21.0/2025,2000,g 11.5,6.0
# From MPEC 2015-KD9
141P-A/Machholz,e,13.9422,153.4969,241.9352,3.057008,0.1843993,0.73586895,326.0056,10/21.0/2025,2000,g 12.0,12.0
# From MPC 24216
141P-B/Machholz,e,13.9861,153.5731,241.8241,3.055364,0.1845481,0.73563035,327.4514,10/21.0/2025,2000,g  9.0,4.0
# From MPC 37026
141P-D/Machholz,e,13.8339,153.2220,242.1840,3.065557,0.1836285,0.73681093,321.5109,10/21.0/2025,2000,g 12.0,12.0
# From MPEC 2015-R12
141P-E/Machholz,e,12.8152,246.1856,149.2667,3.012914,0.1884620,0.75023267,359.9529,09/19.0/1994,2000,g  9.0,4.0
# From MPEC 2015-R12
141P-F/Machholz,e,12.7898,246.1881,149.2374,3.010224,0.1887147,0.75000946,359.9630,09/19.0/1994,2000,g  9.0,4.0
# From MPEC 2015-R12
141P-G/Machholz,e,12.8259,246.3146,149.0784,3.005818,0.1891298,0.74964304,359.9802,09/19.0/1994,2000,g  9.0,4.0
# From MPC186636
141P-H/Machholz,e,14.0170,241.8503,153.6203,3.045817,0.1854165,0.73459771,329.8182,10/21.0/2025,2000,g 18.5,4.0
# From MPEC 2022-SU8
141P-I/Machholz,e,13.9422,153.4520,241.9449,3.047459,0.1852667,0.73509815,327.6483,10/21.0/2025,2000,g 17.5,4.0
